NOAA 15                 
1 25338U 98030A   22265.51905015  .00000121  00000+0  68682-4 0  9991
2 25338  98.6386 293.7586 0010635  20.9534 339.2080 14.26172685267104
NOAA 18                 
1 28654U 05018A   22265.44589824  .00000134  00000+0  96319-4 0  9999
2 28654  98.9416 335.7714 0015043  60.2576 300.0090 14.12778493893764
NOAA 19                 
1 33591U 09005A   22265.52897364  .00000153  00000+0  10782-3 0  9995
2 33591  99.1407 301.6715 0012914 275.7039  84.2659 14.12611625702154
METOP-B                 
1 38771U 12049A   22265.49120498  .00000068  00000+0  50988-4 0  9993
2 38771  98.7201 323.7899 0001826 100.8274  14.3828 14.21474664519511
SARAL                   
1 39086U 13009A   22265.50888330  .00000076  00000+0  44699-4 0  9999
2 39086  98.5491  89.7190 0001371  42.4050 317.7240 14.32028772500370
METOP-C                 
1 43689U 18087A   22265.36472542  .00000066  00000+0  50157-4 0  9997
2 43689  98.6747 323.7365 0003795 113.5951 246.5625 14.21508690201077
ANGELS                  
1 44876U 19092D   22264.56641314  .00002461  00000+0  12305-3 0  9992
2 44876  97.4767  86.7899 0012645  30.0848 330.1109 15.18329467152820
